RTU MIREA 1 (RS51S)     
1 61785U 24199BC  26091.93606209  .00057836  00000+0  89916-3 0  9999
2 61785  97.3069 326.8577 0009704 187.9623 172.1478 15.53698730122605
TEVEL2-4                
1 63213U 25052D   26091.95575095  .00022483  00000+0  73052-3 0  9990
2 63213  97.3994 348.3408 0003836  51.9619 308.1969 15.31922369 58436
TEVEL2-5                
1 63214U 25052E   26091.96864062  .00021671  00000+0  70723-3 0  9997
2 63214  97.3994 348.3209 0003827  52.1337 308.0250 15.31788606 58432
TEVEL2-6                
1 63215U 25052F   26091.97908202  .00022346  00000+0  73004-3 0  9999
2 63215  97.3997 348.3169 0003885  51.4326 308.7263 15.31747997 58434
TEVEL2-1                
1 63217U 25052H   26091.13439087  .00025621  00000+0  84887-3 0  9999
2 63217  97.3970 347.1830 0004412  61.9371 298.2316 15.31264780 58292
TEVEL2-3                
1 63218U 25052J   26091.45814479  .00019106  00000+0  63318-3 0  9994
2 63218  97.3974 347.5197 0004409  61.4761 298.6923 15.31315622 58347
TEVEL2-2                
1 63219U 25052K   26089.63197985  .00026314  00000+0  87348-3 0  9996
2 63219  97.3973 345.6857 0004540  64.6888 295.4824 15.31197062 58060
TEVEL2-9                
1 63237U 25052AD  26091.21441222  .00016649  00000+0  58376-3 0  9998
2 63237  97.4035 346.7930 0008135  64.2556 295.9524 15.29491734 58259
TEVEL2-7                
1 63238U 25052AE  26091.96179639  .00019032  00000+0  67091-3 0  9994
2 63238  97.4032 347.4820 0008203  62.1848 298.0223 15.29287744 58366
TEVEL2-8                
1 63239U 25052AF  26091.44567782  .00016989  00000+0  60014-3 0  9994
2 63239  97.4033 346.9481 0008334  64.4239 295.7862 15.29242596 58289
HADES-ICM               
1 63492U 25052BN  26091.97350478  .00244113  00000+0  24161-2 0  9999
2 63492  97.3906 353.3937 0006929  75.9465 284.2564 15.65045394 58775
INNOSAT 16 (RS92S7)     
1 64878U 25155C   26091.95440145  .00008327  00000+0  34039-3 0  9992
2 64878  97.4501  59.4078 0012674  93.7844 266.4843 15.24543983 69056
GEOSCAN 6 (RS92S6)      
1 64879U 25155D   26091.95883961  .00014324  00000+0  51650-3 0  9992
2 64879  97.4497  60.3337 0010228  88.3749 271.8662 15.28593612 69111
GEOSCAN 1 (RS92S1)      
1 64880U 25155E   26091.92241751  .00015932  00000+0  56594-3 0  9994
2 64880  97.4495  60.3861 0010171  88.7945 271.4460 15.29059390 69115
239ALFEROV (RS61S)      
1 64881U 25155F   26091.92367814  .00020354  00000+0  68505-3 0  9993
2 64881  97.4499  60.7197 0009890  88.5851 271.6522 15.30765763 69139
GEOSCAN 2 (RS92S2)      
1 64890U 25155Q   26091.93021234  .00016037  00000+0  56457-3 0  9993
2 64890  97.4493  60.5148 0009425  78.5295 281.7003 15.29358745 69123
GEOSCAN 5 (RS92S5)      
1 64891U 25155R   26091.92879752  .00020407  00000+0  68007-3 0  9999
2 64891  97.4492  60.8324 0008735  93.5353 266.6887 15.31096326 69148
GEOSCAN 4 (RS92S4)      
1 64892U 25155S   26091.91955150  .00020408  00000+0  67771-3 0  9994
2 64892  97.4495  60.8525 0008777  93.8614 266.3631 15.31210769 69147
GEOSCAN 3 (RS92S3)      
1 64893U 25155T   26091.94149091  .00024635  00000+0  78002-3 0  9992
2 64893  97.4486  61.1126 0008563  95.0141 265.2079 15.32704688 69166
INNOSAT 3 (RS92S0)      
1 64894U 25155U   26091.95786278  .00043479  00000+0  11390-2 0  9991
2 64894  97.4449  61.9608 0008506  95.2023 265.0193 15.38533718 69229
KNACKSAT-2              
1 67683U 98067XZ  26090.99583651  .00046098  00000+0  70857-3 0  9999
2 67683  51.6314 320.8633 0010240 267.3943  92.5875 15.53721795  8254
